CTC2_L_00315016-03
1 10062U 23681BE  26075.70043981  .00000000  00000+0  00000-0 0  9990
2 10062  50.0000 180.0000 0000000   0.0000   0.0000 13.69880518    15
CTC2_L_00315016-04
1 10063U 24094DJ  26075.70043981  .00000000  00000+0  00000-0 0  9990
2 10063  50.0000 180.0000 0000000   0.0000  90.0000 13.69880518    15
CTC2_L_00315017-01
1 10064U 24440CB  26075.70043981  .00000000  00000+0  00000-0 0  9996
2 10064  50.0000 192.0000 0000000   0.0000 192.0000 13.69880518    12
CTC2_L_00315017-02
1 10065U 26388WU  26075.70043981  .00000000  00000+0  00000-0 0  9990
2 10065  50.0000 192.0000 0000000   0.0000 282.0000 13.69880518    13
CTC2_L_00315017-03
1 10066U 23244S   26075.70043981  .00000000  00000+0  00000-0 0  9999
2 10066  50.0000 192.0000 0000000   0.0000  12.0000 13.69880518    15
CTC2_L_00315017-04
1 10067U 22233JL  26075.70043981  .00000000  00000+0  00000-0 0  9997
2 10067  50.0000 192.0000 0000000   0.0000 102.0000 13.69880518    16
CTC2_L_00315018-01
1 10068U 23678KT  26075.70043981  .00000000  00000+0  00000-0 0  9992
2 10068  50.0000 204.0000 0000000   0.0000 204.0000 13.69880518    14
CTC2_L_00315018-02
1 10069U 22788ND  26075.70043981  .00000000  00000+0  00000-0 0  9994
2 10069  50.0000 204.0000 0000000   0.0000 294.0000 13.69880518    14
CTC2_L_00315018-03
1 10070U 26131JP  26075.70043981  .00000000  00000+0  00000-0 0  9992
2 10070  50.0000 204.0000 0000000   0.0000  24.0000 13.69880518    17
CTC2_L_00315018-04
1 10071U 22181NB  26075.70043981  .00000000  00000+0  00000-0 0  9994
2 10071  50.0000 204.0000 0000000   0.0000 114.0000 13.69880518    18
CTC2_L_00315019-01
1 10072U 24995JI  26075.70043981  .00000000  00000+0  00000-0 0  9990
2 10072  50.0000 216.0000 0000000   0.0000 216.0000 13.69880518    15
CTC2_L_00315019-02
1 10073U 22717MZ  26075.70043981  .00000000  00000+0  00000-0 0  9991
2 10073  50.0000 216.0000 0000000   0.0000 306.0000 13.69880518    16
CTC2_L_00315019-03
1 10074U 22053JI  26075.70043981  .00000000  00000+0  00000-0 0  9995
2 10074  50.0000 216.0000 0000000   0.0000  36.0000 13.69880518    17
CTC2_L_00315019-04
1 10075U 25048AP  26075.70043981  .00000000  00000+0  00000-0 0  9993
2 10075  50.0000 216.0000 0000000   0.0000 126.0000 13.69880518    18
CTC2_L_00315020-01
1 10076U 23558XR  26075.70043981  .00000000  00000+0  00000-0 0  9998
2 10076  50.0000 228.0000 0000000   0.0000 228.0000 13.69880518    15
CTC2_L_00315020-02
1 10077U 25519PM  26075.70043981  .00000000  00000+0  00000-0 0  9998
2 10077  50.0000 228.0000 0000000   0.0000 318.0000 13.69880518    16
CTC2_L_00315020-03
1 10078U 24181QC  26075.70043981  .00000000  00000+0  00000-0 0  9993
2 10078  50.0000 228.0000 0000000   0.0000  48.0000 13.69880518    17
CTC2_L_00315020-04
1 10079U 24296MZ  26075.70043981  .00000000  00000+0  00000-0 0  9991
2 10079  50.0000 228.0000 0000000   0.0000 138.0000 13.69880518    18
CTC2_L_00315021-01
1 10080U 22652NS  26075.70043981  .00000000  00000+0  00000-0 0  9997
2 10080  50.0000 240.0000 0000000   0.0000 240.0000 13.69880518    18
CTC2_L_00315021-02
1 10081U 25898XL  26075.70043981  .00000000  00000+0  00000-0 0  9993
2 10081  50.0000 240.0000 0000000   0.0000 330.0000 13.69880518    19
CTC2_L_00315021-03
1 10082U 26105UW  26075.70043981  .00000000  00000+0  00000-0 0  9996
2 10082  50.0000 240.0000 0000000   0.0000  60.0000 13.69880518    10
CTC2_L_00315021-04
1 10083U 26152FT  26075.70043981  .00000000  00000+0  00000-0 0  9999
2 10083  50.0000 240.0000 0000000   0.0000 150.0000 13.69880518    11
CTC2_L_00315022-01
1 10084U 23067ET  26075.70043981  .00000000  00000+0  00000-0 0  9992
2 10084  50.0000 252.0000 0000000   0.0000 252.0000 13.69880518    18
CTC2_L_00315022-02
1 10085U 26863UM  26075.70043981  .00000000  00000+0  00000-0 0  9990
2 10085  50.0000 252.0000 0000000   0.0000 342.0000 13.69880518    19
CTC2_L_00315022-03
1 10086U 22964J   26075.70043981  .00000000  00000+0  00000-0 0  9999
2 10086  50.0000 252.0000 0000000   0.0000  72.0000 13.69880518    10
CTC2_L_00315022-04
1 10087U 22061RP  26075.70043981  .00000000  00000+0  00000-0 0  9998
2 10087  50.0000 252.0000 0000000   0.0000 162.0000 13.69880518    11
CTC2_L_00315023-01
1 10088U 25324HM  26075.70043981  .00000000  00000+0  00000-0 0  9994
2 10088  50.0000 264.0000 0000000   0.0000 264.0000 13.69880518    18
CTC2_L_00315023-02
1 10089U 22222KF  26075.70043981  .00000000  00000+0  00000-0 0  9999
2 10089  50.0000 264.0000 0000000   0.0000 354.0000 13.69880518    19
CTC2_L_00315023-03
1 10090U 23965VO  26075.70043981  .00000000  00000+0  00000-0 0  9996
2 10090  50.0000 264.0000 0000000   0.0000  84.0000 13.69880518    11
CTC2_L_00315023-04
1 10091U 24106BC  26075.70043981  .00000000  00000+0  00000-0 0  9995
2 10091  50.0000 264.0000 0000000   0.0000 174.0000 13.69880518    12
CTC2_L_00315024-01
1 10092U 26937GX  26075.70043981  .00000000  00000+0  00000-0 0  9990
2 10092  50.0000 276.0000 0000000   0.0000 276.0000 13.69880518    19
CTC2_L_00315024-02
1 10093U 25868TF  26075.70043981  .00000000  00000+0  00000-0 0  9993
2 10093  50.0000 276.0000 0000000   0.0000   6.0000 13.69880518    11
CTC2_L_00315024-03
1 10094U 22589RP  26075.70043981  .00000000  00000+0  00000-0 0  9991
2 10094  50.0000 276.0000 0000000   0.0000  96.0000 13.69880518    11
CTC2_L_00315024-04
1 10095U 22426RO  26075.70043981  .00000000  00000+0  00000-0 0  9992
2 10095  50.0000 276.0000 0000000   0.0000 186.0000 13.69880518    12
CTC2_L_00315025-01
1 10096U 23991QT  26075.70043981  .00000000  00000+0  00000-0 0  9991
2 10096  50.0000 288.0000 0000000   0.0000 288.0000 13.69880518    19
CTC2_L_00315025-02
1 10097U 24230OL  26075.70043981  .00000000  00000+0  00000-0 0  9999
2 10097  50.0000 288.0000 0000000   0.0000  18.0000 13.69880518    11
CTC2_L_00315025-03
1 10098U 24315IP  26075.70043981  .00000000  00000+0  00000-0 0  9994
2 10098  50.0000 288.0000 0000000   0.0000 108.0000 13.69880518    12
CTC2_L_00315025-04
1 10099U 24997NY  26075.70043981  .00000000  00000+0  00000-0 0  9991
2 10099  50.0000 288.0000 0000000   0.0000 198.0000 13.69880518    12
CTC2_L_00315026-01
1 10100U 26649XB  26075.70043981  .00000000  00000+0  00000-0 0  9990
2 10100  50.0000 300.0000 0000000   0.0000 300.0000 13.69880518    15
CTC2_L_00315026-02
1 10101U 23054FL  26075.70043981  .00000000  00000+0  00000-0 0  9998
2 10101  50.0000 300.0000 0000000   0.0000  30.0000 13.69880518    16
CTC2_L_00315026-03
1 10102U 26685NZ  26075.70043981  .00000000  00000+0  00000-0 0  9992
2 10102  50.0000 300.0000 0000000   0.0000 120.0000 13.69880518    17
CTC2_L_00315026-04
1 10103U 25028KY  26075.70043981  .00000000  00000+0  00000-0 0  9993
2 10103  50.0000 300.0000 0000000   0.0000 210.0000 13.69880518    18
CTC2_L_00315027-01
1 10104U 23011XL  26075.70043981  .00000000  00000+0  00000-0 0  9994
2 10104  50.0000 312.0000 0000000   0.0000 312.0000 13.69880518    15
CTC2_L_00315027-02
1 10105U 23395MS  26075.70043981  .00000000  00000+0  00000-0 0  9990
2 10105  50.0000 312.0000 0000000   0.0000  42.0000 13.69880518    16
CTC2_L_00315027-03
1 10106U 25914UU  26075.70043981  .00000000  00000+0  00000-0 0  9990
2 10106  50.0000 312.0000 0000000   0.0000 132.0000 13.69880518    17
CTC2_L_00315027-04
1 10107U 23708JC  26075.70043981  .00000000  00000+0  00000-0 0  9990
2 10107  50.0000 312.0000 0000000   0.0000 222.0000 13.69880518    18
CTC2_L_00315028-01
1 10108U 25394HX  26075.70043981  .00000000  00000+0  00000-0 0  9994
2 10108  50.0000 324.0000 0000000   0.0000 324.0000 13.69880518    15
CTC2_L_00315028-02
1 10109U 23432EV  26075.70043981  .00000000  00000+0  00000-0 0  9996
2 10109  50.0000 324.0000 0000000   0.0000  54.0000 13.69880518    16
CTC2_L_00315028-03
1 10110U 22525YP  26075.70043981  .00000000  00000+0  00000-0 0  9990
2 10110  50.0000 324.0000 0000000   0.0000 144.0000 13.69880518    18
CTC2_L_00315028-04
1 10111U 23598XE  26075.70043981  .00000000  00000+0  00000-0 0  9992
2 10111  50.0000 324.0000 0000000   0.0000 234.0000 13.69880518    19
CTC2_L_00315029-01
1 10112U 25597KD  26075.70043981  .00000000  00000+0  00000-0 0  9994
2 10112  50.0000 336.0000 0000000   0.0000 336.0000 13.69880518    16
CTC2_L_00315029-02
1 10113U 24765NS  26075.70043981  .00000000  00000+0  00000-0 0  9991
2 10113  50.0000 336.0000 0000000   0.0000  66.0000 13.69880518    17
CTC2_L_00315029-03
1 10114U 26390CI  26075.70043981  .00000000  00000+0  00000-0 0  9998
2 10114  50.0000 336.0000 0000000   0.0000 156.0000 13.69880518    18
CTC2_L_00315029-04
1 10115U 25967BD  26075.70043981  .00000000  00000+0  00000-0 0  9998
2 10115  50.0000 336.0000 0000000   0.0000 246.0000 13.69880518    19
CTC2_L_00315030-01
1 10116U 26794ED  26075.70043981  .00000000  00000+0  00000-0 0  9998
2 10116  50.0000 348.0000 0000000   0.0000 348.0000 13.69880518    16
CTC2_L_00315030-02
1 10117U 22783KT  26075.70043981  .00000000  00000+0  00000-0 0  9993
2 10117  50.0000 348.0000 0000000   0.0000  78.0000 13.69880518    17
CTC2_L_00315030-03
1 10118U 23901QS  26075.70043981  .00000000  00000+0  00000-0 0  9997
2 10118  50.0000 348.0000 0000000   0.0000 168.0000 13.69880518    18
CTC2_L_00315030-04
1 10119U 22766SK  26075.70043981  .00000000  00000+0  00000-0 0  9996
2 10119  50.0000 348.0000 0000000   0.0000 258.0000 13.69880518    19
